COMMENT,ORIGINATOR,NORAD_CAT_ID,OBJECT_NAME,OBJECT_TYPE,CLASSIFICATION_TYPE,INTLDES,EPOCH,EPOCH_MICROSECONDS,MEAN_MOTION,ECCENTRICITY,INCLINATION,RA_OF_ASC_NODE,ARG_OF_PERICENTER,MEAN_ANOMALY,EPHEMERIS_TYPE,ELEMENT_SET_NO,REV_AT_EPOCH,BSTAR,MEAN_MOTION_DOT,MEAN_MOTION_DDOT,FILE,TLE_LINE0,TLE_LINE1,TLE_LINE2,OBJECT_ID,OBJECT_NUMBER,SEMIMAJOR_AXIS,PERIOD,APOGEE,PERIGEE,DECAYED
"GENERATED VIA SPACETRACK.ORG API","18 SPCS","48899","SPACEBEE-110","PAYLOAD","U","21059W","2021-07-06 22:36:51","149952","15.12152574","0.0009372","97.5162","316.6335","205.6582","154.4185","0","999","168","0.00010328","0.00001717","0","3072229","0 SPACEBEE-110","1 48899U 21059W   21187.94225868  .00001717  00000-0  10328-3 0  9991","2 48899  97.5162 316.6335 0009372 205.6582 154.4185 15.12152574  1682","2021-059W","48899","6907.774","95.228","536.113","523.165","0"
"GENERATED VIA SPACETRACK.ORG API","18 SPCS","48899","SPACEBEE-110","PAYLOAD","U","21059W","2021-07-08 01:36:45","596160","15.12156128","0.0009481","97.5163","317.7406","201.15","158.934","0","999","185","0.00010277","0.00001709","0","3072681","0 SPACEBEE-110","1 48899U 21059W   21189.06719440  .00001709  00000-0  10277-3 0  9994","2 48899  97.5163 317.7406 0009481 201.1500 158.9340 15.12156128  1856","2021-059W","48899","6907.763","95.228","536.177","523.079","0"
"GENERATED VIA SPACETRACK.ORG API","18 SPCS","48899","SPACEBEE-110","PAYLOAD","U","21059W","2021-07-08 01:36:45","596160","15.12156128","0.0009481","97.5163","317.7406","201.15","158.934","0","999","185","0.00010277","0.00001709","0","3072897","0 SPACEBEE-110","1 48899U 21059W   21189.06719440  .00001709  00000-0  10277-3 0  9994","2 48899  97.5163 317.7406 0009481 201.1500 158.9340 15.12156128  1856","2021-059W","48899","6907.763","95.228","536.177","523.079","0"
"GENERATED VIA SPACETRACK.ORG API","18 SPCS","48899","SPACEBEE-110","PAYLOAD","U","21059W","2021-07-09 14:08:23","887968","15.1215873","0.0009642","97.5168","319.2385","195.7738","164.3194","0","999","208","0.000057644","0.0000093","0","3073812","0 SPACEBEE-110","1 48899U 21059W   21190.58916537  .00000930  00000-0  57644-4 0  9994","2 48899  97.5168 319.2385 0009642 195.7738 164.3194 15.12158730  2089","2021-059W","48899","6907.755","95.228","536.280","522.959","0"
"GENERATED VIA SPACETRACK.ORG API","18 SPCS","48899","SPACEBEE-110","PAYLOAD","U","21059W","2021-07-09 14:08:23","887968","15.1215873","0.0009642","97.5168","319.2385","195.7738","164.3194","0","999","208","0.000057644","0.0000093","0","3073899","0 SPACEBEE-110","1 48899U 21059W   21190.58916537  .00000930  00000-0  57644-4 0  9994","2 48899  97.5168 319.2385 0009642 195.7738 164.3194 15.12158730  2089","2021-059W","48899","6907.755","95.228","536.280","522.959","0"
"GENERATED VIA SPACETRACK.ORG API","18 SPCS","48899","SPACEBEE-110","PAYLOAD","U","21059W","2021-07-10 18:43:35","380704","15.1216187","0.0009749","97.517","320.4112","191.583","168.5178","0","999","226","0.000063505","0.00001031","0","3074545","0 SPACEBEE-110","1 48899U 21059W   21191.78027061  .00001031  00000-0  63505-4 0  9998","2 48899  97.5170 320.4112 0009749 191.5830 168.5178 15.12161870  2266","2021-059W","48899","6907.745","95.228","536.345","522.876","0"
"GENERATED VIA SPACETRACK.ORG API","18 SPCS","48899","SPACEBEE-110","PAYLOAD","U","21059W","2021-07-10 18:43:35","380704","15.1216187","0.0009749","97.517","320.4112","191.583","168.5178","0","999","226","0.000063505","0.00001031","0","3074552","0 SPACEBEE-110","1 48899U 21059W   21191.78027061  .00001031  00000-0  63505-4 0  9998","2 48899  97.5170 320.4112 0009749 191.5830 168.5178 15.12161870  2266","2021-059W","48899","6907.745","95.228","536.345","522.876","0"
"GENERATED VIA SPACETRACK.ORG API","18 SPCS","48899","SPACEBEE-110","PAYLOAD","U","21059W","2021-07-11 13:47:02","952672","15.12163651","0.0009828","97.517","321.1927","188.8075","171.2984","0","999","238","0.000069476","0.00001134","0","3074977","0 SPACEBEE-110","1 48899U 21059W   21192.57433973  .00001134  00000-0  69476-4 0  9996","2 48899  97.5170 321.1927 0009828 188.8075 171.2984 15.12163651  2384","2021-059W","48899","6907.740","95.228","536.394","522.816","0"
"GENERATED VIA SPACETRACK.ORG API","18 SPCS","48899","SPACEBEE-110","PAYLOAD","U","21059W","2021-07-11 20:08:12","97824","15.12164252","0.000985","97.5171","321.4533","187.8873","172.2204","0","999","242","0.000065803","0.00001071","0","3075158","0 SPACEBEE-110","1 48899U 21059W   21192.83902891  .00001071  00000-0  65803-4 0  9995","2 48899  97.5171 321.4533 0009850 187.8873 172.2204 15.12164252  2420","2021-059W","48899","6907.738","95.228","536.407","522.799","0"
"GENERATED VIA SPACETRACK.ORG API","18 SPCS","48899","SPACEBEE-110","PAYLOAD","U","21059W","2021-07-12 07:15:13","134240","15.12165148","0.0009895","97.5171","321.9092","186.3416","173.7691","0","999","249","0.000065555","0.00001067","0","3075407","0 SPACEBEE-110","1 48899U 21059W   21193.30223535  .00001067  00000-0  65555-4 0  9998","2 48899  97.5171 321.9092 0009895 186.3416 173.7691 15.12165148  2499","2021-059W","48899","6907.735","95.228","536.436","522.765","0"
"GENERATED VIA SPACETRACK.ORG API","18 SPCS","48899","SPACEBEE-110","PAYLOAD","U","21059W","2021-07-12 12:01:04","994400","15.12165488","0.0009918","97.5171","322.1046","185.6757","174.4363","0","999","252","0.000064894","0.00001055","0","3075625","0 SPACEBEE-110","1 48899U 21059W   21193.50075225  .00001055  00000-0  64894-4 0  9993","2 48899  97.5171 322.1046 0009918 185.6757 174.4363 15.12165488  2522","2021-059W","48899","6907.734","95.228","536.450","522.748","0"
"GENERATED VIA SPACETRACK.ORG API","18 SPCS","48899","SPACEBEE-110","PAYLOAD","U","21059W","2021-07-12 21:32:48","663744","15.12166728","0.0009955","97.5172","322.4954","184.3091","175.8055","0","999","258","0.000068206","0.00001113","0","3075815","0 SPACEBEE-110","1 48899U 21059W   21193.89778546  .00001113  00000-0  68206-4 0  9997","2 48899  97.5172 322.4954 0009955 184.3091 175.8055 15.12166728  2589","2021-059W","48899","6907.731","95.228","536.472","522.719","0"
"GENERATED VIA SPACETRACK.ORG API","18 SPCS","48899","SPACEBEE-110","PAYLOAD","U","21059W","2021-07-13 10:15:06","876288","15.12168106","0.0010003","97.5172","323.0165","182.5632","177.5549","0","999","266","0.000070649","0.00001155","0","3076228","0 SPACEBEE-110","1 48899U 21059W   21194.42716292  .00001155  00000-0  70649-4 0  9997","2 48899  97.5172 323.0165 0010003 182.5632 177.5549 15.12168106  2665","2021-059W","48899","6907.726","95.228","536.501","522.682","0"
"GENERATED VIA SPACETRACK.ORG API","18 SPCS","48899","SPACEBEE-110","PAYLOAD","U","21059W","2021-07-13 13:25:41","437632","15.12168261","0.001002","97.5172","323.1468","182.1133","178.0057","0","999","268","0.000069518","0.00001135","0","3076237","0 SPACEBEE-110","1 48899U 21059W   21194.55950738  .00001135  00000-0  69518-4 0  9997","2 48899  97.5172 323.1468 0010020 182.1133 178.0057 15.12168261  2687","2021-059W","48899","6907.726","95.227","536.512","522.669","0"
"GENERATED VIA SPACETRACK.ORG API","18 SPCS","48899","SPACEBEE-110","PAYLOAD","U","21059W","2021-07-13 18:11:33","254592","15.12168724","0.0010042","97.5173","323.3422","181.464","178.6563","0","999","271","0.000069215","0.0000113","0","3076456","0 SPACEBEE-110","1 48899U 21059W   21194.75802378  .00001130  00000-0  69215-4 0  9994","2 48899  97.5173 323.3422 0010042 181.4640 178.6563 15.12168724  2715","2021-059W","48899","6907.724","95.227","536.526","522.653","0"
"GENERATED VIA SPACETRACK.ORG API","18 SPCS","48899","SPACEBEE-110","PAYLOAD","U","21059W","2021-07-14 13:15:00","537984","15.12169341","0.0010129","97.5174","324.1238","178.8238","181.3018","0","999","283","0.00005621","0.00000906","0","3076892","0 SPACEBEE-110","1 48899U 21059W   21195.55208956  .00000906  00000-0  56210-4 0  9996","2 48899  97.5174 324.1238 0010129 178.8238 181.3018 15.12169341  2834","2021-059W","48899","6907.723","95.227","536.584","522.591","0"
"GENERATED VIA SPACETRACK.ORG API","18 SPCS","48899","SPACEBEE-110","PAYLOAD","U","21059W","2021-07-14 18:00:52","343712","15.12169722","0.0010144","97.5174","324.3192","178.2011","181.9257","0","999","286","0.0000567","0.00000914","0","3077133","0 SPACEBEE-110","1 48899U 21059W   21195.75060583  .00000914  00000-0  56700-4 0  9993","2 48899  97.5174 324.3192 0010144 178.2011 181.9257 15.12169722  2862","2021-059W","48899","6907.721","95.227","536.594","522.579","0"
"GENERATED VIA SPACETRACK.ORG API","18 SPCS","48899","SPACEBEE-110","PAYLOAD","U","21059W","2021-07-14 21:11:26","854080","15.1217039","0.0010153","97.5174","324.4495","177.7759","182.3519","0","999","288","0.000059905","0.0000097","0","3077128","0 SPACEBEE-110","1 48899U 21059W   21195.88294970  .00000970  00000-0  59905-4 0  9998","2 48899  97.5174 324.4495 0010153 177.7759 182.3519 15.12170390  2883","2021-059W","48899","6907.719","95.227","536.598","522.571","0"
"GENERATED VIA SPACETRACK.ORG API","18 SPCS","48899","SPACEBEE-110","PAYLOAD","U","21059W","2021-07-15 06:43:10","427520","15.12171382","0.0010189","97.5174","324.8403","176.4431","183.6874","0","999","294","0.000060409","0.00000978","0","3077307","0 SPACEBEE-110","1 48899U 21059W   21196.27998180  .00000978  00000-0  60409-4 0  9995","2 48899  97.5174 324.8403 0010189 176.4431 183.6874 15.12171382  2945","2021-059W","48899","6907.716","95.227","536.620","522.543","0"
"GENERATED VIA SPACETRACK.ORG API","18 SPCS","48899","SPACEBEE-110","PAYLOAD","U","21059W","2021-07-16 08:07:46","569216","15.12173373","0.0010289","97.5175","325.8825","172.9198","187.2179","0","999","310","0.000055278","0.0000089","0","3077881","0 SPACEBEE-110","1 48899U 21059W   21197.33873344  .00000890  00000-0  55278-4 0  9998","2 48899  97.5175 325.8825 0010289 172.9198 187.2179 15.12173373  3106","2021-059W","48899","6907.710","95.227","536.683","522.468","0"
